{
  "type": "FeatureCollection",
  "features": [
    {
      "type": "Feature",
      "properties": {
        "norad_id": 32425,
        "name": "FENGYUN 1C DEB",
        "group": "fengyun-1c-debris",
        "lat": -22.009277430605174,
        "lon": 149.05750945174807,
        "alt_km": 818.6873647069915,
        "timestamp": "2025-12-27T15:27:11.477394+00:00",
        "meta_object_name": "FENGYUN 1C DEB",
        "meta_object_id": "1999-025DAM",
        "meta_epoch": "2025-12-12T16:13:12.115488",
        "meta_mean_motion": 14.16741504,
        "meta_eccentricity": 0.02316015,
        "meta_inclination": 96.7012,
        "meta_ra_of_asc_node": 135.0318,
        "meta_arg_of_pericenter": 299.6477,
        "meta_mean_anomaly": 58.1818,
        "meta_ephemeris_type": 0,
        "meta_classification_type": "U",
        "meta_norad_cat_id": 32425,
        "meta_element_set_no": 999,
        "meta_rev_at_epoch": 69534,
        "meta_bstar": 0.00075748036,
        "meta_mean_motion_dot": 1.938e-05,
        "meta_mean_motion_ddot": 0,
        "tle_line1": "1 32425U 99025DAM 25346.67583467  .00001938  00000+0  75748-3 0  9991",
        "tle_line2": "2 32425  96.7012 135.0318 0231601 299.6477  58.1818 14.16741504695342"
      },
      "geometry": {
        "type": "Point",
        "coordinates": [
          149.05750945174807,
          -22.009277430605174
        ]
      }
    },
    {
      "type": "Feature",
      "properties": {
        "norad_id": 32430,
        "name": "FENGYUN 1C DEB",
        "group": "fengyun-1c-debris",
        "lat": 57.91669445730514,
        "lon": -140.87841892624223,
        "alt_km": 1075.349051889535,
        "timestamp": "2025-12-27T15:27:11.477406+00:00",
        "meta_object_name": "FENGYUN 1C DEB",
        "meta_object_id": "1999-025DAS",
        "meta_epoch": "2025-12-26T07:16:59.865888",
        "meta_mean_motion": 13.70205189,
        "meta_eccentricity": 0.0370421,
        "meta_inclination": 98.6963,
        "meta_ra_of_asc_node": 23.7755,
        "meta_arg_of_pericenter": 234.0226,
        "meta_mean_anomaly": 122.6046,
        "meta_ephemeris_type": 0,
        "meta_classification_type": "U",
        "meta_norad_cat_id": 32430,
        "meta_element_set_no": 999,
        "meta_rev_at_epoch": 91389,
        "meta_bstar": 0.002092,
        "meta_mean_motion_dot": 2.954e-05,
        "meta_mean_motion_ddot": 0,
        "tle_line1": "1 32430U 99025DAS 25360.30347067  .00002954  00000+0  20920-2 0  9997",
        "tle_line2": "2 32430  98.6963  23.7755 0370421 234.0226 122.6046 13.70205189913897"
      },
      "geometry": {
        "type": "Point",
        "coordinates": [
          -140.87841892624223,
          57.91669445730514
        ]
      }
    },
    {
      "type": "Feature",
      "properties": {
        "norad_id": 32432,
        "name": "FENGYUN 1C DEB",
        "group": "fengyun-1c-debris",
        "lat": 57.60356805179685,
        "lon": 24.359409357213572,
        "alt_km": 825.4500720874903,
        "timestamp": "2025-12-27T15:27:11.477417+00:00",
        "meta_object_name": "FENGYUN 1C DEB",
        "meta_object_id": "1999-025DAU",
        "meta_epoch": "2025-12-23T20:15:23.310720",
        "meta_mean_motion": 14.52617697,
        "meta_eccentricity": 0.0172618,
        "meta_inclination": 98.1696,
        "meta_ra_of_asc_node": 33.7423,
        "meta_arg_of_pericenter": 271.2687,
        "meta_mean_anomaly": 86.874,
        "meta_ephemeris_type": 0,
        "meta_classification_type": "U",
        "meta_norad_cat_id": 32432,
        "meta_element_set_no": 999,
        "meta_rev_at_epoch": 70856,
        "meta_bstar": 0.0014396,
        "meta_mean_motion_dot": 7.12e-05,
        "meta_mean_motion_ddot": 0,
        "tle_line1": "1 32432U 99025DAU 25357.84401980  .00007120  00000+0  14396-2 0  9999",
        "tle_line2": "2 32432  98.1696  33.7423 0172618 271.2687  86.8740 14.52617697708562"
      },
      "geometry": {
        "type": "Point",
        "coordinates": [
          24.359409357213572,
          57.60356805179685
        ]
      }
    },
    {
      "type": "Feature",
      "properties": {
        "norad_id": 32440,
        "name": "FENGYUN 1C DEB",
        "group": "fengyun-1c-debris",
        "lat": 17.76285139360935,
        "lon": 38.93867088801156,
        "alt_km": 1104.530215710206,
        "timestamp": "2025-12-27T15:27:11.477428+00:00",
        "meta_object_name": "FENGYUN 1C DEB",
        "meta_object_id": "1999-025DBC",
        "meta_epoch": "2025-12-26T08:42:24.513408",
        "meta_mean_motion": 13.6135933,
        "meta_eccentricity": 0.0323597,
        "meta_inclination": 99.1541,
        "meta_ra_of_asc_node": 214.7749,
        "meta_arg_of_pericenter": 55.5826,
        "meta_mean_anomaly": 307.546,
        "meta_ephemeris_type": 0,
        "meta_classification_type": "U",
        "meta_norad_cat_id": 32440,
        "meta_element_set_no": 999,
        "meta_rev_at_epoch": 60471,
        "meta_bstar": 0.0034134,
        "meta_mean_motion_dot": 3.652e-05,
        "meta_mean_motion_ddot": 0,
        "tle_line1": "1 32440U 99025DBC 25360.36278372  .00003652  00000+0  34134-2 0  9994",
        "tle_line2": "2 32440  99.1541 214.7749 0323597  55.5826 307.5460 13.61359330604715"
      },
      "geometry": {
        "type": "Point",
        "coordinates": [
          38.93867088801156,
          17.76285139360935
        ]
      }
    },
    {
      "type": "Feature",
      "properties": {
        "norad_id": 32447,
        "name": "FENGYUN 1C DEB",
        "group": "fengyun-1c-debris",
        "lat": 72.53133729882161,
        "lon": -132.69876396967774,
        "alt_km": 914.998067808302,
        "timestamp": "2025-12-27T15:27:11.477438+00:00",
        "meta_object_name": "FENGYUN 1C DEB",
        "meta_object_id": "1999-025DBK",
        "meta_epoch": "2025-12-09T20:22:18.261408",
        "meta_mean_motion": 13.96013309,
        "meta_eccentricity": 0.00800272,
        "meta_inclination": 98.9313,
        "meta_ra_of_asc_node": 0.0649,
        "meta_arg_of_pericenter": 49.1812,
        "meta_mean_anomaly": 311.6255,
        "meta_ephemeris_type": 0,
        "meta_classification_type": "U",
        "meta_norad_cat_id": 32447,
        "meta_element_set_no": 999,
        "meta_rev_at_epoch": 67838,
        "meta_bstar": 0.00036340481,
        "meta_mean_motion_dot": 4.69e-06,
        "meta_mean_motion_ddot": 0,
        "tle_line1": "1 32447U 99025DBK 25343.84882247  .00000469  00000+0  36340-3 0  9992",
        "tle_line2": "2 32447  98.9313   0.0649 0080027  49.1812 311.6255 13.96013309678386"
      },
      "geometry": {
        "type": "Point",
        "coordinates": [
          -132.69876396967774,
          72.53133729882161
        ]
      }
    },
    {
      "type": "Feature",
      "properties": {
        "norad_id": 32451,
        "name": "FENGYUN 1C DEB",
        "group": "fengyun-1c-debris",
        "lat": -14.659113442130934,
        "lon": -14.963734742221229,
        "alt_km": 1078.3265397002606,
        "timestamp": "2025-12-27T15:27:11.477448+00:00",
        "meta_object_name": "FENGYUN 1C DEB",
        "meta_object_id": "1999-025DBP",
        "meta_epoch": "2025-12-26T18:44:47.450400",
        "meta_mean_motion": 13.86640988,
        "meta_eccentricity": 0.01849489,
        "meta_inclination": 99.9724,
        "meta_ra_of_asc_node": 341.4792,
        "meta_arg_of_pericenter": 157.823,
        "meta_mean_anomaly": 203.1056,
        "meta_ephemeris_type": 0,
        "meta_classification_type": "U",
        "meta_norad_cat_id": 32451,
        "meta_element_set_no": 999,
        "meta_rev_at_epoch": 61959,
        "meta_bstar": 0.0017866802,
        "meta_mean_motion_dot": 2.329e-05,
        "meta_mean_motion_ddot": 0,
        "tle_line1": "1 32451U 99025DBP 25360.78110475  .00002329  00000+0  17867-2 0  9995",
        "tle_line2": "2 32451  99.9724 341.4792 0184948 157.8230 203.1056 13.86640988619597"
      },
      "geometry": {
        "type": "Point",
        "coordinates": [
          -14.963734742221229,
          -14.659113442130934
        ]
      }
    },
    {
      "type": "Feature",
      "properties": {
        "norad_id": 32453,
        "name": "FENGYUN 1C DEB",
        "group": "fengyun-1c-debris",
        "lat": 19.257905695543627,
        "lon": -91.53831041542936,
        "alt_km": 943.3265601560443,
        "timestamp": "2025-12-27T15:27:11.477459+00:00",
        "meta_object_name": "FENGYUN 1C DEB",
        "meta_object_id": "1999-025DBR",
        "meta_epoch": "2025-12-26T11:57:34.403040",
        "meta_mean_motion": 14.02277609,
        "meta_eccentricity": 0.0096603,
        "meta_inclination": 99.3716,
        "meta_ra_of_asc_node": 270.5918,
        "meta_arg_of_pericenter": 167.8789,
        "meta_mean_anomaly": 192.4732,
        "meta_ephemeris_type": 0,
        "meta_classification_type": "U",
        "meta_norad_cat_id": 32453,
        "meta_element_set_no": 999,
        "meta_rev_at_epoch": 93621,
        "meta_bstar": 0.00058897,
        "meta_mean_motion_dot": 8.94e-06,
        "meta_mean_motion_ddot": 0,
        "tle_line1": "1 32453U 99025DBR 25360.49831485  .00000894  00000+0  58897-3 0  9990",
        "tle_line2": "2 32453  99.3716 270.5918 0096603 167.8789 192.4732 14.02277609936213"
      },
      "geometry": {
        "type": "Point",
        "coordinates": [
          -91.53831041542936,
          19.257905695543627
        ]
      }
    }
  ]
}